#dP2024  3 22  0  0  0.00000000      96 __u+U IGS20 FIT  IAC
## 2306 432000.00000000   900.00000000 60391 0.0000000000000
+  120   C06C07C08C09C10C11C12C13C14C16C19C20C21C22C23C24C25
+        C26C27C28C29C30C32C33C34C35C36C37C38C39C40C41C42C43
+        C44C45C46E02E03E04E05E07E08E09E10E11E12E13E14E15E18
+        E19E21E24E25E26E27E30E31E33E34E36G01G02G03G04G05G06
+        G07G08G09G10G11G12G13G14G15G16G17G18G19G20G21G22G23
+        G24G25G26G27G28G29G30G31G32J02J03J04R01R02R03R04R05
+        R07R08R09R11R12R13R14R15R16R17R18R19R20R21R22R24R25
+        R26  0  0  0  0  0  0  0  0  0  0  0  0  0  0  0  0
++         9  9  8  9  9  6  6  9  6  9  7  8  7  7  7  7  6
++         6  8  7  6  7  8  8  7  7  7  8  9 10  7  8  6  6
++         6  6  7  6  5  6  6  7  6  5  6  7  6  7  7  7  7
++         5  7  6  5  7  6  6  6  6  6  6  5  6  6  7  5  6
++         7  6  7  6  7  6  5  6  5  6  6  6  6  5  7  6  6
++         6  5  6  6  8  5  7  6  6  8  7  0  8  7  7  7  7
++         7  7  8  7  7  7  7  5  7  6  5  7  8  5  7  7  6
++         7  0  0  0  0  0  0  0  0  0  0  0  0  0  0  0  0
%c M  cc GPS ccc cccc cccc cccc cccc ccccc ccccc ccccc ccccc
%c cc cc ccc ccc cccc cccc cccc cccc ccccc ccccc ccccc ccccc
%f  0.0000000  0.000000000  0.00000000000  0.000000000000000
%f  0.0000000  0.000000000  0.00000000000  0.000000000000000
%i    0    0    0    0      0      0      0      0         0
%i    0    0    0    0      0      0      0      0         0
/* INFORMATION & ANALYSIS CENTER (IAC)      ULTRA-RAPID DATA
/* S/V CLOCKS ARE ALIGNED TO GNSS TIME                      
/* G:C1WC2W R:C1PC2P E:C1XC5X C:C2IC6I J:C1CC2S             
/* PCV:IGS20_2290 OL/AL:FES2004  NONE     YN ORB:CoN CLK:CoN
*  2024 03 22 13  0  0.00000000
PC06 -17353.267522  28591.696543 -25803.141215    290.851054
PC07  -7796.298516  39588.835440 -11772.618786   -891.732128
PC08  -2031.546736  22077.084797  35891.787932     40.505911
PC09 -11324.878300  27499.738469 -29667.898386   -655.954392
PC10  -1321.079745  41530.192651  -4764.696913     34.265953
PC11  22478.581497  -7725.352114  14689.779149    472.847237
PC12  12249.084143   9654.122258  23175.781068   -218.020650
PC13   5937.454922  26316.213932  32649.302616    426.518237
PC14  16185.659288    724.452412 -22695.108060    464.579149
PC16 -22049.777604  27864.032543 -22672.066366   -411.475827
PC19 -13082.989833   9949.223267  22576.853659   -917.857226
PC20 -16745.477919  -9683.899339  20143.619261   -282.402804
PC21  10514.452792  25301.922961  -5184.327733   -961.480857
PC22  -1698.343455  25051.607628  12145.856853    -65.815733
PC23   7281.440903 -14868.284676  22463.926050   -775.916865
PC24  26369.669528   8804.903939  -2585.640844    951.462049
PC25  23416.959549  -5069.817151  14310.396826    355.776184
PC26  14386.251393  16339.277012 -17497.224912   -266.382265
PC27  -4901.905931 -16689.336924 -21840.331174    288.246089
PC28  10677.171678 -22695.444334 -12228.018870    219.970012
PC29 -21730.038903  15981.367175  -7171.850020    257.964585
PC30 -18622.555187  -1407.060819 -20753.940290    -42.375942
PC32 -10713.550505 -25264.875936   5146.593420   -587.512640
PC33  13047.314891  -9996.266924 -22546.473493   -960.902300
PC34  19405.609598    -74.268317  20030.083367    395.623063
PC35  -9978.966227  23140.312342  12016.326022    405.174279
PC36 -23697.701078   4312.555994 -14067.635937     26.719801
PC37 -13621.142014 -16710.340638  17711.917649   -947.616992
PC38 -10825.414537  19937.844079  35592.780711    144.291526
PC39 -25594.834430  28554.070189 -17725.288342     -7.673909
PC40 -12935.880242  36998.422745 -15174.422496    -61.938609
PC41   2126.831618 -24709.932537 -12753.221952   -910.091968
PC42  16676.994273  11348.994787 -19219.384185   -445.825655
PC43  21935.184282 -15265.331020   7977.718818     65.093012
PC44   5431.506685  16729.567856  21655.379192    420.861354
PC45  -7173.510323  14773.101107 -22566.884185    -76.841060
PC46 -26559.888851  -8313.185315   1737.804251   -133.710713
PE02  21938.525358  19060.859853   5655.263341    113.260601
PE03  13023.824946  12659.068481 -23368.125216   -102.034774
PE04 -18594.142328   9494.582854  20994.155285   -355.599896
PE05    -71.790581  27038.291697 -12033.217527   4731.430063
PE07  13400.206841 -25520.095653  -6749.075489   -110.326969
PE08  18459.124719  -8743.659317 -21422.799696   -242.902809
PE09 -13421.698946  25454.154530   6909.977837   -379.582829
PE10 -25902.027274  11225.670985   8904.946666   -611.248603
PE11 -18110.438988  15361.077767  17675.099157   3142.365644
PE12 -29040.343312   5801.439161   -223.310795   -959.862099
PE13  18662.276889 -15149.552567 -17258.844164    -20.647826
PE14   6215.951206 -31035.041639  -5763.297863     73.590125
PE15  29069.920929  -5478.509007    788.102296    -92.674606
PE18  -6674.338100  22717.113522   2311.808020    464.169168
PE19 -11662.402810 -14818.967335  22829.052591   -385.591175
PE21 -10695.964491 -24774.947026  12153.173099   -585.258787
PE24  -7721.275667  16075.953782 -23649.437217   -665.146264
PE25  10358.471596  24755.538966 -12500.901904      2.422572
PE26  -3215.124099 -15821.026850 -24804.615609    403.742600
PE27   7337.788138 -16298.423844  23586.662386   -305.092584
PE30  20926.809418   1915.005882  20834.921504   -120.598366
PE31 -20816.211837  -1670.774588 -20976.318113    -18.887925
PE33 -21877.059227  -7568.771084 -18446.147641      9.367334
PE34  22295.960051   7210.715209  18081.279666   -101.383893
PE36   2440.932792  15808.946021  24908.961020   -202.744634
PG01 -10163.030578 -12349.018519 -21620.036688    175.346774
PG02    513.297881 -15419.228021 -21099.276600   -466.145208
PG03 -10040.989102 -21954.509375 -11360.539391    266.990280
PG04    157.963731 -24072.234034  11093.724419    320.921767
PG05  -1897.361341  17218.248461  19932.846730   -166.326195
PG06 -26039.149937   5534.075701   -161.525316    356.830569
PG07 -19705.739710  -7776.981899  16801.624780    -90.077769
PG08   5275.588337 -25697.549523  -2294.321111     72.624908
PG09 -10174.720735 -14681.742983  19560.086954    133.386299
PG10  20370.171853   6417.228137 -15786.524419     -1.837995
PG11 -20735.199803  11870.653950  11575.188434   -614.328772
PG12   7479.252300  22609.199599 -12112.371398   -489.535719
PG13 -13651.813663  22181.770695   4331.273893    636.314061
PG14 -21126.265151  -9780.938360 -12938.916981    356.987162
PG15  -1921.800261  26291.558645  -2625.853950    140.321683
PG16   8390.800475 -13145.394876  21103.363943   -335.202910
PG17 -15244.515519   -985.759227 -21325.303858    712.713485
PG18  20290.791247   6727.623087  15895.434685   -580.418060
PG19 -17274.324308   8225.708524 -18446.592004    457.505567
PG20 -12739.998012   9421.902730  21360.577904    383.001525
PG21   5714.676079 -16184.380754 -19508.642829    130.355293
PG22 -18456.158243  -2901.432706 -18339.588934     12.074869
PG23  20783.955323  15751.217914  -5526.366203    182.917308
PG24  -2086.247520  16855.791903 -20750.153755   -449.745371
PG25  16398.156576  20807.606190  -3696.673221    491.949533
PG26  17327.271505  -3967.120822  19684.469777    176.453415
PG27  12731.732600 -21195.386824   8808.773496    -13.598258
PG28  25962.139955  -4675.109182  -3085.210675   -173.855000
PG29   7199.635280  17062.150381  18945.212182   -604.131615
PG30 -25571.304049    -67.396544   7813.549045   -416.210296
PG31  23934.932152  -9804.269875   6686.133849   -228.008260
PG32  15949.354611  -2691.759860 -20820.959219   -616.565056
PJ02 -21497.759152  20909.498513 -25043.583891     -3.184931
PJ03 -30590.520084  28019.134207  12690.501530     -0.167684
PJ04      0.000000      0.000000      0.000000 999999.999999
PR01  -7695.444844 -21768.409669  10870.212455     80.368090
PR02 -10863.227643  -6703.389166  22123.947646    -22.618307
PR03  -8647.663254  12426.666784  20599.532807     96.835655
PR04  -1846.579108  24182.841025   7957.176156    228.684485
PR05   5886.726624  23135.048316  -9000.230550    128.807610
PR07   8353.991217 -13213.009769 -20093.883005     78.510460
PR08   1505.117466 -24282.363136  -7549.432966    -74.818862
PR09  23823.829847   7998.298551   4131.429953    176.750783
PR11   2417.267368 -10866.013586  22958.599072     30.422378
PR12 -16240.429828 -14495.744869  13304.367247     38.101679
PR13 -23559.505024  -9630.826524  -1682.774007    -45.534474
PR14 -17282.513567   2138.298486 -18639.723853     26.250762
PR15   -973.006273  11575.427586 -22694.577633     81.147212
PR16  16142.972587  14343.092513 -13545.392742     24.218802
PR17 -21313.341066  13915.121883  -1374.913301     71.227376
PR18 -12996.021043  16579.338536  14439.321356    133.417011
PR19    187.972466  11789.376303  22618.007191   -270.296443
PR20  17997.949470  -1830.583453  17966.290201   -110.163623
PR21  21426.332929 -13800.135750   1278.564990    -86.567374
PR22  12394.188980 -16317.492175 -15154.750317    114.064737
PR24 -18445.526360   2736.458758 -17386.336707    -48.769677
PR25  21859.850284 -13108.417000   1189.271895    -24.308159
PR26   1888.330347 -23934.204902  -8628.554721    -28.947970
EOF
